NORAD_CAT_ID,OBJECT_NAME,OBJECT_TYPE,EPOCH,MEAN_MOTION,ECCENTRICITY,INCLINATION,RA_OF_ASC_NODE,ARG_OF_PERICENTER,MEAN_ANOMALY,BSTAR,MEAN_MOTION_DOT,MEAN_MOTION_DDOT,TLE_LINE0,TLE_LINE1,TLE_LINE2,SEMIMAJOR_AXIS,PERIOD,APOGEE,PERIGEE,DECAYED
53821.0,STARLINK-4752,PAYLOAD,2022-09-23 16:00:00,15.87818877,0.0031093,53.2173,236.2252,55.0678,31.8966,-0.004399,-0.0125893,0.00044686,0 STARLINK-4752,1 53821U 22114D   22266.66667824 -.01258930  44686-3 -43990-2 0  9990,2 53821  53.2173 236.2252 0031093  55.0678  31.8966 15.87818877  1308,6686.536,90.69,329.19199999999995,287.611,0.0
53821.0,STARLINK-4752,PAYLOAD,2022-09-24 06:00:00,15.86300697,0.0025248,53.2171,233.28,56.3905,125.4195,-0.0048744,-0.01275004,0.00045101,0 STARLINK-4752,1 53821U 22114D   22267.25001157 -.01275004  45101-3 -48744-2 0  9993,2 53821  53.2171 233.2800 0025248  56.3905 125.4195 15.86300697  1392,6690.802,90.777,329.56,295.774,0.0
53821.0,STARLINK-4752,PAYLOAD,2022-09-24 14:00:01,15.85473268,0.0021680999999999,53.2168,231.5981,55.8857,230.1609,-0.0053993,-0.01190741,0.0,0 STARLINK-4752,1 53821U 22114D   22267.58335648 -.01190741  00000-0 -53993-2 0  9996,2 53821  53.2168 231.5981 0021681  55.8857 230.1609 15.85473268  1305,6693.129,90.825,329.506,300.483,0.0
53821.0,STARLINK-4752,PAYLOAD,2022-09-24 22:00:00,15.84594724,0.0018170999999999,53.2176,229.9191,53.8302,335.2977,-0.0055336,-0.01163677,0.0,0 STARLINK-4752,1 53821U 22114D   22267.91667824 -.01163677  00000-0 -55336-2 0  9998,2 53821  53.2176 229.9191 0018171  53.8302 335.2977 15.84594724  1496,6695.603,90.875,329.635,305.302,0.0
53821.0,STARLINK-4752,PAYLOAD,2022-09-25 14:00:01,15.82889157,0.0011264,53.2174,226.569,47.0365,185.2441,-0.0063434,-0.01231464,0.0,0 STARLINK-4752,1 53821U 22114D   22268.58334491 -.01231464  00000-0 -63434-2 0  9991,2 53821  53.2174 226.5690 0011264  47.0365 185.2441 15.82889157  1305,6700.4119999999975,90.973,329.824,314.73,0.0
53821.0,STARLINK-4752,PAYLOAD,2022-09-25 22:00:01,15.82010597,0.0007647999999999,53.2175,224.8961,42.4107,289.9568,-0.0065201,-0.0121147,0.0,0 STARLINK-4752,1 53821U 22114D   22268.91668981 -.01211470  00000-0 -65201-2 0  9991,2 53821  53.2175 224.8961 0007648  42.4107 289.9568 15.82010597  1308,6702.892,91.023,329.884,319.631,0.0
53821.0,STARLINK-4752,PAYLOAD,2022-09-26 10:00:00,15.80717512,0.0003808,53.217,222.3935,18.7566,281.6108,-0.0070249,-0.01223044,0.0,0 STARLINK-4752,1 53821U 22114D   22269.41667824 -.01223044  00000-0 -70249-2 0  9990,2 53821  53.2170 222.3935 0003808  18.7566 281.6108 15.80717512  1731,6706.547,91.098,330.966,325.8590000000001,0.0
53821.0,STARLINK-4752,PAYLOAD,2022-09-26 14:00:01,15.80268552,0.0003299,53.2174,221.5586,9.4167,159.7916,-0.0070043,-0.01197093,0.0,0 STARLINK-4752,1 53821U 22114D   22269.58334491 -.01197093  00000-0 -70043-2 0  9995,2 53821  53.2174 221.5586 0003299   9.4167 159.7916 15.80268552  1306,6707.818,91.124,331.895,327.47,0.0
53821.0,STARLINK-4752,PAYLOAD,2022-09-26 22:00:00,15.79505789,0.0003027,53.2171,219.8913,305.7525,320.2912,-0.0081932999999999,-0.01357658,0.0,0 STARLINK-4752,1 53821U 22114D   22269.91667824 -.01357658  00000-0 -81933-2 0  9996,2 53821  53.2171 219.8913 0003027 305.7525 320.2912 15.79505789  1301,6709.977,91.168,333.8730000000001,329.811,0.0
53821.0,STARLINK-4752,PAYLOAD,2022-09-27 14:00:01,15.77611224,0.0006752999999999,53.2172,216.5668,273.4398,183.3317,-0.0073997,-0.01130476,0.0,0 STARLINK-4752,1 53821U 22114D   22270.58334491 -.01130476  00000-0 -73997-2 0  9990,2 53821  53.2172 216.5668 0006753 273.4398 183.3317 15.77611224  1926,6715.348000000001,91.277,341.7480000000001,332.67800000000005,0.0
53821.0,STARLINK-4752,PAYLOAD,2022-09-27 22:00:01,15.76739264,0.0005716,53.217,214.9065,269.4318,281.1709,-0.0077043999999999,-0.01130814,0.0,0 STARLINK-4752,1 53821U 22114D   22270.91668981 -.01130814  00000-0 -77044-2 0  9994,2 53821  53.2170 214.9065 0005716 269.4318 281.1709 15.76739264  1973,6717.823,91.328,343.528,335.849,0.0
53821.0,STARLINK-4752,PAYLOAD,2022-09-28 06:00:00,15.75912121,0.0002738,53.2174,213.2527,269.5589,13.6638,-0.0083066,-0.01168229,0.0,0 STARLINK-4752,1 53821U 22114D   22271.25001157 -.01168229  00000-0 -83066-2 0  9990,2 53821  53.2174 213.2527 0002738 269.5589  13.6638 15.75912121  2024,6720.174,91.376,343.879,340.199,0.0
53821.0,STARLINK-4752,PAYLOAD,2022-09-28 14:00:01,15.75132592,7.5e-05,53.2173,211.5952,36.7431,338.11300000000006,-0.0095915,-0.01309572,0.0,0 STARLINK-4752,1 53821U 22114D   22271.58334491 -.01309572  00000-0 -95915-2 0  9990,2 53821  53.2173 211.5952 0000750  36.7431 338.1130 15.75132592  1306,6722.391,91.421,344.76,343.75199999999984,0.0
53821.0,STARLINK-4752,PAYLOAD,2022-09-28 22:00:00,15.74101913,0.0001257,53.2172,209.9416,57.9613,47.5672,-0.0069419,-0.00910178,0.0,0 STARLINK-4752,1 53821U 22114D   22271.91667824 -.00910178  00000-0 -69419-2 0  9995,2 53821  53.2172 209.9416 0001257  57.9613  47.5672 15.74101913  2137,6725.325,91.481,348.035,346.345,0.0
53821.0,STARLINK-4752,PAYLOAD,2022-09-29 06:00:00,15.73318191,0.0001343,53.2175,208.2929,60.7686,134.3694,-0.0012851,-0.00178109,0.0,0 STARLINK-4752,1 53821U 22114D   22272.25001157 -.00178109  00000-0 -12851-2 0  9992,2 53821  53.2175 208.2929 0001343  60.7686 134.3694 15.73318191  2180,6727.558000000001,91.526,350.327,348.52,0.0
53821.0,STARLINK-4752,PAYLOAD,2022-09-29 14:00:01,15.73205072,0.000113,53.2175,206.642,67.469,216.6597,-1.2113e-05,-2.319e-05,0.0,0 STARLINK-4752,1 53821U 22114D   22272.58334491 -.00002319  00000-0 -12113-4 0  9990,2 53821  53.2175 206.6420 0001130  67.4690 216.6597 15.73205072  1303,6727.880999999999,91.533,350.506,348.985,0.0
53821.0,STARLINK-4752,PAYLOAD,2022-09-29 22:00:00,15.7323579,0.0001182,53.215,204.9882,80.3282,292.7944,-0.00020242,-0.00028974,0.0,0 STARLINK-4752,1 53821U 22114D   22272.91667824 -.00028974  00000-0 -20242-3 0  9992,2 53821  53.2150 204.9882 0001182  80.3282 292.7944 15.73235790  1308,6727.793000000002,91.531,350.45300000000015,348.86300000000006,0.0
53821.0,STARLINK-4752,PAYLOAD,2022-09-30 06:00:02,15.73169411,0.0001097999999999,53.2149,203.3403,69.5064,32.657,0.00055609,0.00078048,0.0,0 STARLINK-4752,1 53821U 22114D   22273.25002315  .00078048  00000-0  55609-3 0  9998,2 53821  53.2149 203.3403 0001098  69.5064  32.6570 15.73169411  2348,6727.982,91.535,350.586,349.1090000000001,0.0
53821.0,STARLINK-4752,PAYLOAD,2022-09-30 14:00:01,15.73231337,0.0001018,53.2152,201.6888,78.9235,112.0953,5.6009e-05,7.258e-05,0.0,0 STARLINK-4752,1 53821U 22114D   22273.58334491  .00007258  00000-0  56009-4 0  9998,2 53821  53.2152 201.6888 0001018  78.9235 112.0953 15.73231337  1306,6727.806,91.531,350.356,348.986,0.0
53821.0,STARLINK-4752,PAYLOAD,2022-09-30 22:00:00,15.73265096,0.0001177999999999,53.2152,200.0395,81.547,198.4485,-0.00041354,-0.00058416,0.0,0 STARLINK-4752,1 53821U 22114D   22273.91667824 -.00058416  00000-0 -41354-3 0  9994,2 53821  53.2152 200.0395 0001178  81.5470 198.4485 15.73265096  2443,6727.71,91.529,350.367,348.782,0.0
53821.0,STARLINK-4752,PAYLOAD,2022-10-01 14:00:01,15.73191303,0.0001082999999999,53.2145,196.74,86.4469,11.4655,-8.6154e-05,-0.00012688,0.0,0 STARLINK-4752,1 53821U 22114D   22274.58334491 -.00012688  00000-0 -86154-4 0  9998,2 53821  53.2145 196.7400 0001083  86.4469  11.4655 15.73191303  1306,6727.92,91.534,350.514,349.056,0.0
53821.0,STARLINK-4752,PAYLOAD,2022-10-01 22:00:00,15.73063091,6.13e-05,53.2146,195.0915,92.0747,94.5126,-0.00042062,-0.00058891,0.0,0 STARLINK-4752,1 53821U 22114D   22274.91667824 -.00058891  00000-0 -42062-3 0  9999,2 53821  53.2146 195.0915 0000613  92.0747  94.5126 15.73063091  1307,6728.286,91.541,350.56300000000016,349.73800000000006,0.0
53821.0,STARLINK-4752,PAYLOAD,2022-10-02 14:00:01,15.72947657,1.76e-05,53.2148,191.7925,133.6206,230.4308,0.0030740999999999,0.00449946,0.0,0 STARLINK-4752,1 53821U 22114D   22275.58334491  .00449946  00000-0  30741-2 0  9997,2 53821  53.2148 191.7925 0000176 133.6206 230.4308 15.72947657  2705,6728.615,91.548,350.598,350.361,0.0
53821.0,STARLINK-4752,PAYLOAD,2022-10-02 22:00:00,15.73313198,1.32e-05,53.2149,190.144,94.6741,358.163,0.00085186,0.00121262,0.0,0 STARLINK-4752,1 53821U 22114D   22275.91667824  .00121262  00000-0  85186-3 0  9995,2 53821  53.2149 190.1440 0000132  94.6741 358.1630 15.73313198  2763,6727.571999999999,91.527,349.526,349.349,0.0
53821.0,STARLINK-4752,PAYLOAD,2022-10-03 14:00:01,15.73392034,6.86e-05,53.2146,186.8432,99.4187,171.7291,-0.00026926,-0.00038546,0.0,0 STARLINK-4752,1 53821U 22114D   22276.58334491 -.00038546  00000-0 -26926-3 0  9991,2 53821  53.2146 186.8432 0000686  99.4187 171.7291 15.73392034  1301,6727.348000000001,91.522,349.6740000000001,348.751,0.0
53821.0,STARLINK-4752,PAYLOAD,2022-10-03 22:00:00,15.73376755,9.76e-05,53.2147,185.1943,95.8771,264.3897,-0.00082346,-0.00115479,0.0,0 STARLINK-4752,1 53821U 22114D   22276.91667824 -.00115479  00000-0 -82346-3 0  9996,2 53821  53.2147 185.1943 0000976  95.8771 264.3897 15.73376755  1316,6727.391,91.523,349.913,348.6,0.0
53821.0,STARLINK-4752,PAYLOAD,2022-10-04 14:00:01,15.73238592,0.0001054999999999,53.2148,181.8937,102.2009,76.1948,-0.00015174,-0.00021895,0.0,0 STARLINK-4752,1 53821U 22114D   22277.58334491 -.00021895  00000-0 -15174-3 0  9994,2 53821  53.2148 181.8937 0001055 102.2009  76.1948 15.73238592  1300,6727.785,91.531,350.36,348.94,0.0
53821.0,STARLINK-4752,PAYLOAD,2022-10-04 16:00:00,15.73216032,0.0001137999999999,53.2153,181.4813,105.7348,184.9102,0.00013908,0.00018956,0.0,0 STARLINK-4752,1 53821U 22114D   22277.66667824  .00018956  00000-0  13908-3 0  9997,2 53821  53.2153 181.4813 0001138 105.7348 184.9102 15.73216032  3038,6727.849,91.532,350.48,348.949,0.0
53821.0,STARLINK-4752,PAYLOAD,2022-10-04 22:00:00,15.7320404,0.0001027,53.2154,180.2454,97.7253,169.5754,-0.00034767,-0.00049135,0.0,0 STARLINK-4752,1 53821U 22114D   22277.91667824 -.00049135  00000-0 -34767-3 0  9996,2 53821  53.2154 180.2454 0001027  97.7253 169.5754 15.73204040  3071,6727.884,91.533,350.44,349.05800000000005,0.0
